start=new Date('2021-09-01T00:00:00.000Z').valueOf();
sats=[{"MEAN_ELEMENT_THEORY":"SGP4","ARG_OF_PERICENTER":"85.5677","INCLINATION":"53.0538","REF_FRAME":"TEME","GP_ID":"183841053","ECCENTRICITY":"0.00022090","APOAPSIS":"548.749","EPHEMERIS_TYPE":"0","RA_OF_ASC_NODE":"87.5314","MEAN_MOTION_DOT":"0.00001153","MEAN_ANOMALY":"274.5564","COUNTRY_CODE":"US","FILE":"3106454","TLE_LINE2":"2 45734  53.0538  87.5314 0002209  85.5677 274.5564 15.06398084 67378","TLE_LINE1":"1 45734U 20038E   21243.84921428  .00001153  00000-0  96323-4 0  9993","LAUNCH_DATE":"2020-06-13","ELEMENT_SET_NO":"999","PERIAPSIS":"545.690","EPOCH":"2021-08-31T20:22:52.113792","DECAY_DATE":null,"OBJECT_TYPE":"PAYLOAD","OBJECT_NAME":"STARLINK-1468","OBJECT_ID":"2020-038E","CENTER_NAME":"EARTH","CLASSIFICATION_TYPE":"U","BSTAR":"0.00009632300000","MEAN_MOTION_DDOT":"0.0000000000000","TIME_SYSTEM":"UTC","MEAN_MOTION":"15.06398084","SEMIMAJOR_AXIS":"6925.354","NORAD_CAT_ID":"45734","RCS_SIZE":"LARGE","PERIOD":"95.592","SITE":"AFETR","REV_AT_EPOCH":"6737"},{"TLE_LINE2":"2 45735  53.0544  87.3680 0001956  98.1099 262.0112 15.06385453 67373","ELEMENT_SET_NO":"999","LAUNCH_DATE":"2020-06-13","TLE_LINE1":"1 45735U 20038F   21243.88610057 -.00000540  00000-0 -17322-4 0  9994","EPOCH":"2021-08-31T21:15:59.089248","PERIAPSIS":"545.904","OBJECT_TYPE":"PAYLOAD","DECAY_DATE":null,"OBJECT_NAME":"STARLINK-1471","ARG_OF_PERICENTER":"98.1099","MEAN_ELEMENT_THEORY":"SGP4","REF_FRAME":"TEME","INCLINATION":"53.0544","GP_ID":"183839302","APOAPSIS":"548.613","ECCENTRICITY":"0.00019560","EPHEMERIS_TYPE":"0","RA_OF_ASC_NODE":"87.3680","MEAN_ANOMALY":"262.0112","MEAN_MOTION_DOT":"-0.00000540","FILE":"3106454","COUNTRY_CODE":"US","BSTAR":"-0.00001732200000","TIME_SYSTEM":"UTC","MEAN_MOTION_DDOT":"0.0000000000000","SEMIMAJOR_AXIS":"6925.393","MEAN_MOTION":"15.06385453","NORAD_CAT_ID":"45735","RCS_SIZE":"LARGE","PERIOD":"95.593","REV_AT_EPOCH":"6737","SITE":"AFETR","CENTER_NAME":"EARTH","OBJECT_ID":"2020-038F","CLASSIFICATION_TYPE":"U"},{"CLASSIFICATION_TYPE":"U","CENTER_NAME":"EARTH","OBJECT_ID":"2020-038G","RCS_SIZE":"LARGE","PERIOD":"95.593","NORAD_CAT_ID":"45736","REV_AT_EPOCH":"6738","SITE":"AFETR","BSTAR":"-0.00002684600000","SEMIMAJOR_AXIS":"6925.368","MEAN_MOTION":"15.06393758","TIME_SYSTEM":"UTC","MEAN_MOTION_DDOT":"0.0000000000000","RA_OF_ASC_NODE":"87.1703","EPHEMERIS_TYPE":"0","FILE":"3106454","COUNTRY_CODE":"US","MEAN_ANOMALY":"260.4754","MEAN_MOTION_DOT":"-0.00000681","REF_FRAME":"TEME","INCLINATION":"53.0540","ARG_OF_PERICENTER":"99.6446","MEAN_ELEMENT_THEORY":"SGP4","APOAPSIS":"548.528","ECCENTRICITY":"0.00018700","GP_ID":"183839552","OBJECT_TYPE":"PAYLOAD","DECAY_DATE":null,"OBJECT_NAME":"STARLINK-1472","TLE_LINE2":"2 45736  53.0540  87.1703 0001870  99.6446 260.4754 15.06393758 67383","EPOCH":"2021-08-31T22:19:39.598752","PERIAPSIS":"545.938","LAUNCH_DATE":"2020-06-13","ELEMENT_SET_NO":"999","TLE_LINE1":"1 45736U 20038G   21243.93031943 -.00000681  00000-0 -26846-4 0  9999"},{"MEAN_MOTION_DDOT":"0.0000000000000","TIME_SYSTEM":"UTC","MEAN_MOTION":"15.06398664","SEMIMAJOR_AXIS":"6925.353","BSTAR":"0.00005633400000","REV_AT_EPOCH":"6737","SITE":"AFETR","NORAD_CAT_ID":"45738","PERIOD":"95.592","RCS_SIZE":"LARGE","OBJECT_ID":"2020-038J","CENTER_NAME":"EARTH","CLASSIFICATION_TYPE":"U","TLE_LINE1":"1 45738U 20038J   21243.87502233  .00000557  00000-0  56334-4 0  9994","LAUNCH_DATE":"2020-06-13","ELEMENT_SET_NO":"999","PERIAPSIS":"545.660","EPOCH":"2021-08-31T21:00:01.929312","TLE_LINE2":"2 45738  53.0546  87.4273 0002249  89.7819 270.3427 15.06398664 67378","OBJECT_NAME":"STARLINK-1474","DECAY_DATE":null,"OBJECT_TYPE":"PAYLOAD","GP_ID":"183840304","ECCENTRICITY":"0.00022490","APOAPSIS":"548.775","ARG_OF_PERICENTER":"89.7819","MEAN_ELEMENT_THEORY":"SGP4","INCLINATION":"53.0546","REF_FRAME":"TEME","MEAN_ANOMALY":"270.3427","MEAN_MOTION_DOT":"0.00000557","COUNTRY_CODE":"US","FILE":"3106454","EPHEMERIS_TYPE":"0","RA_OF_ASC_NODE":"87.4273"},{"OBJECT_NAME":"STARLINK-1475","OBJECT_TYPE":"PAYLOAD","DECAY_DATE":null,"ELEMENT_SET_NO":"999","LAUNCH_DATE":"2020-06-13","TLE_LINE1":"1 45739U 20038K   21243.75707774 -.00000614  00000-0 -22321-4 0  9994","EPOCH":"2021-08-31T18:10:11.516736","PERIAPSIS":"546.323","TLE_LINE2":"2 45739  53.0550  47.9446 0001304 122.5408 237.5707 15.06396074 67917","MEAN_MOTION_DOT":"-0.00000614","MEAN_ANOMALY":"237.5707","FILE":"3106454","COUNTRY_CODE":"US","EPHEMERIS_TYPE":"0","RA_OF_ASC_NODE":"47.9446","GP_ID":"183840554","APOAPSIS":"548.129","ECCENTRICITY":"0.00013040","MEAN_ELEMENT_THEORY":"SGP4","ARG_OF_PERICENTER":"122.5408","REF_FRAME":"TEME","INCLINATION":"53.0550","SITE":"AFETR","REV_AT_EPOCH":"6791","NORAD_CAT_ID":"45739","RCS_SIZE":"LARGE","PERIOD":"95.592","TIME_SYSTEM":"UTC","MEAN_MOTION_DDOT":"0.0000000000000","SEMIMAJOR_AXIS":"6925.361","MEAN_MOTION":"15.06396074","BSTAR":"-0.00002232100000","CLASSIFICATION_TYPE":"U","CENTER_NAME":"EARTH","OBJECT_ID":"2020-038K"},{"CENTER_NAME":"EARTH","OBJECT_ID":"2020-038L","CLASSIFICATION_TYPE":"U","TIME_SYSTEM":"UTC","MEAN_MOTION_DDOT":"0.0000000000000","SEMIMAJOR_AXIS":"6925.389","MEAN_MOTION":"15.06386904","BSTAR":"0.00008565800000","SITE":"AFETR","REV_AT_EPOCH":"6737","NORAD_CAT_ID":"45740","RCS_SIZE":"LARGE","PERIOD":"95.593","GP_ID":"183839802","APOAPSIS":"548.546","ECCENTRICITY":"0.00018660","MEAN_ELEMENT_THEORY":"SGP4","ARG_OF_PERICENTER":"87.0931","REF_FRAME":"TEME","INCLINATION":"53.0533","MEAN_ANOMALY":"273.0271","MEAN_MOTION_DOT":"0.00000994","FILE":"3106454","COUNTRY_CODE":"US","EPHEMERIS_TYPE":"0","RA_OF_ASC_NODE":"87.3943","LAUNCH_DATE":"2020-06-13","ELEMENT_SET_NO":"999","TLE_LINE1":"1 45740U 20038L   21243.88240448  .00000994  00000-0  85658-4 0  9991","EPOCH":"2021-08-31T21:10:39.747072","PERIAPSIS":"545.961","TLE_LINE2":"2 45740  53.0533  87.3943 0001866  87.0931 273.0271 15.06386904 67371","OBJECT_NAME":"STARLINK-1479","OBJECT_TYPE":"PAYLOAD","DECAY_DATE":null},{"TLE_LINE2":"2 45741  53.0548  87.5210 0002048  81.9655 278.1566 15.06376923 68493","LAUNCH_DATE":"2020-06-13","ELEMENT_SET_NO":"999","TLE_LINE1":"1 45741U 20038M   21243.85292870 -.00000872  00000-0 -39668-4 0  9992","EPOCH":"2021-08-31T20:28:13.039680","PERIAPSIS":"545.866","OBJECT_TYPE":"PAYLOAD","DECAY_DATE":null,"OBJECT_NAME":"STARLINK-1480","MEAN_ELEMENT_THEORY":"SGP4","ARG_OF_PERICENTER":"81.9655","REF_FRAME":"TEME","INCLINATION":"53.0548","GP_ID":"183818907","APOAPSIS":"548.703","ECCENTRICITY":"0.00020480","EPHEMERIS_TYPE":"0","RA_OF_ASC_NODE":"87.5210","MEAN_ANOMALY":"278.1566","MEAN_MOTION_DOT":"-0.00000872","FILE":"3106374","COUNTRY_CODE":"US","BSTAR":"-0.00003966800000","TIME_SYSTEM":"UTC","MEAN_MOTION_DDOT":"0.0000000000000","SEMIMAJOR_AXIS":"6925.419","MEAN_MOTION":"15.06376923","NORAD_CAT_ID":"45741","RCS_SIZE":"LARGE","PERIOD":"95.594","REV_AT_EPOCH":"6849","SITE":"AFETR","CENTER_NAME":"EARTH","OBJECT_ID":"2020-038M","CLASSIFICATION_TYPE":"U"},{"BSTAR":"-0.00001750300000","TIME_SYSTEM":"UTC","MEAN_MOTION_DDOT":"0.0000000000000","SEMIMAJOR_AXIS":"6925.393","MEAN_MOTION":"15.06385493","NORAD_CAT_ID":"45742","PERIOD":"95.593","RCS_SIZE":"LARGE","SITE":"AFETR","REV_AT_EPOCH":"6736","CENTER_NAME":"EARTH","OBJECT_ID":"2020-038N","CLASSIFICATION_TYPE":"U","TLE_LINE2":"2 45742  53.0539  87.5510 0001782  96.2561 263.8631 15.06385493 67367","LAUNCH_DATE":"2020-06-13","ELEMENT_SET_NO":"999","TLE_LINE1":"1 45742U 20038N   21243.84555202 -.00000542  00000-0 -17503-4 0  9991","EPOCH":"2021-08-31T20:17:35.694528","PERIAPSIS":"546.024","OBJECT_TYPE":"PAYLOAD","DECAY_DATE":null,"OBJECT_NAME":"STARLINK-1481","MEAN_ELEMENT_THEORY":"SGP4","ARG_OF_PERICENTER":"96.2561","REF_FRAME":"TEME","INCLINATION":"53.0539","GP_ID":"183840804","APOAPSIS":"548.492","ECCENTRICITY":"0.00017820","EPHEMERIS_TYPE":"0","RA_OF_ASC_NODE":"87.5510","MEAN_MOTION_DOT":"-0.00000542","MEAN_ANOMALY":"263.8631","COUNTRY_CODE":"US","FILE":"3106454"},{"PERIAPSIS":"545.937","EPOCH":"2021-08-31T21:05:22.613280","TLE_LINE1":"1 45743U 20038P   21243.87873395 -.00001002  00000-0 -48425-4 0  9990","LAUNCH_DATE":"2020-06-13","ELEMENT_SET_NO":"999","TLE_LINE2":"2 45743  53.0547  87.4041 0001950  82.6674 277.4536 15.06375983 67375","OBJECT_NAME":"STARLINK-1483","DECAY_DATE":null,"OBJECT_TYPE":"PAYLOAD","ECCENTRICITY":"0.00019500","APOAPSIS":"548.638","GP_ID":"183841054","INCLINATION":"53.0547","REF_FRAME":"TEME","MEAN_ELEMENT_THEORY":"SGP4","ARG_OF_PERICENTER":"82.6674","FILE":"3106454","COUNTRY_CODE":"US","MEAN_MOTION_DOT":"-0.00001002","MEAN_ANOMALY":"277.4536","RA_OF_ASC_NODE":"87.4041","EPHEMERIS_TYPE":"0","MEAN_MOTION":"15.06375983","SEMIMAJOR_AXIS":"6925.422","MEAN_MOTION_DDOT":"0.0000000000000","TIME_SYSTEM":"UTC","BSTAR":"-0.00004842500000","SITE":"AFETR","REV_AT_EPOCH":"6737","PERIOD":"95.594","RCS_SIZE":"LARGE","NORAD_CAT_ID":"45743","OBJECT_ID":"2020-038P","CENTER_NAME":"EARTH","CLASSIFICATION_TYPE":"U"},{"SITE":"AFETR","REV_AT_EPOCH":"6738","RCS_SIZE":"LARGE","PERIOD":"95.594","NORAD_CAT_ID":"45744","MEAN_MOTION":"15.06377516","SEMIMAJOR_AXIS":"6925.417","MEAN_MOTION_DDOT":"0.0000000000000","TIME_SYSTEM":"UTC","BSTAR":"0.00007251400000","CLASSIFICATION_TYPE":"U","OBJECT_ID":"2020-038Q","CENTER_NAME":"EARTH","OBJECT_NAME":"STARLINK-1500","DECAY_DATE":null,"OBJECT_TYPE":"PAYLOAD","PERIAPSIS":"546.003","EPOCH":"2021-08-31T21:37:13.069344","TLE_LINE1":"1 45744U 20038Q   21243.90084571  .00000798  00000-0  72514-4 0  9990","ELEMENT_SET_NO":"999","LAUNCH_DATE":"2020-06-13","TLE_LINE2":"2 45744  53.0548  87.3080 0001847  87.7562 272.3639 15.06377516 67389","FILE":"3106454","COUNTRY_CODE":"US","MEAN_ANOMALY":"272.3639","MEAN_MOTION_DOT":"0.00000798","RA_OF_ASC_NODE":"87.3080","EPHEMERIS_TYPE":"0","ECCENTRICITY":"0.00018470","APOAPSIS":"548.562","GP_ID":"183839303","INCLINATION":"53.0548","REF_FRAME":"TEME","MEAN_ELEMENT_THEORY":"SGP4","ARG_OF_PERICENTER":"87.7562"}];
